{
  "type": "FeatureCollection",
  "features": [
    {
      "type": "Feature",
      "properties": {
        "norad_id": 30874,
        "name": "FENGYUN 1C DEB",
        "group": "fengyun-1c-debris",
        "lat": 81.3665061041156,
        "lon": -80.64238482961201,
        "alt_km": 802.9101786716174,
        "timestamp": "2025-12-15T04:01:20.730874+00:00",
        "meta_object_name": "FENGYUN 1C DEB",
        "meta_object_id": "1999-025AXL",
        "meta_epoch": "2025-12-14T00:48:37.359936",
        "meta_mean_motion": 14.19652191,
        "meta_eccentricity": 0.00419478,
        "meta_inclination": 98.4905,
        "meta_ra_of_asc_node": 18.5923,
        "meta_arg_of_pericenter": 36.9171,
        "meta_mean_anomaly": 22.7478,
        "meta_ephemeris_type": 0,
        "meta_classification_type": "U",
        "meta_norad_cat_id": 30874,
        "meta_element_set_no": 999,
        "meta_rev_at_epoch": 97039,
        "meta_bstar": 0.00056894289,
        "meta_mean_motion_dot": 1.171e-05,
        "meta_mean_motion_ddot": 0,
        "tle_line1": "1 30874U 99025AXL 25348.03376574  .00001171  00000+0  56894-3 0  9998",
        "tle_line2": "2 30874  98.4905  18.5923 0041947  36.9171  22.7478 14.19652191970396"
      },
      "geometry": {
        "type": "Point",
        "coordinates": [
          -80.64238482961201,
          81.3665061041156
        ]
      }
    },
    {
      "type": "Feature",
      "properties": {
        "norad_id": 30876,
        "name": "FENGYUN 1C DEB",
        "group": "fengyun-1c-debris",
        "lat": -22.95589760119885,
        "lon": -22.080017530517317,
        "alt_km": 882.1576917652701,
        "timestamp": "2025-12-15T04:01:20.730884+00:00",
        "meta_object_name": "FENGYUN 1C DEB",
        "meta_object_id": "1999-025AXN",
        "meta_epoch": "2025-12-13T11:34:06.997152",
        "meta_mean_motion": 13.99168568,
        "meta_eccentricity": 0.00664066,
        "meta_inclination": 98.8101,
        "meta_ra_of_asc_node": 332.5326,
        "meta_arg_of_pericenter": 275.4482,
        "meta_mean_anomaly": 215.135,
        "meta_ephemeris_type": 0,
        "meta_classification_type": "U",
        "meta_norad_cat_id": 30876,
        "meta_element_set_no": 999,
        "meta_rev_at_epoch": 95720,
        "meta_bstar": 0.00058558551,
        "meta_mean_motion_dot": 8.22e-06,
        "meta_mean_motion_ddot": 0,
        "tle_line1": "1 30876U 99025AXN 25347.48202543  .00000822  00000+0  58559-3 0  9994",
        "tle_line2": "2 30876  98.8101 332.5326 0066406 275.4482 215.1350 13.99168568957207"
      },
      "geometry": {
        "type": "Point",
        "coordinates": [
          -22.080017530517317,
          -22.95589760119885
        ]
      }
    },
    {
      "type": "Feature",
      "properties": {
        "norad_id": 30878,
        "name": "FENGYUN 1C DEB",
        "group": "fengyun-1c-debris",
        "lat": -23.311373686797886,
        "lon": 166.78442725301386,
        "alt_km": 855.1810356473607,
        "timestamp": "2025-12-15T04:01:20.730894+00:00",
        "meta_object_name": "FENGYUN 1C DEB",
        "meta_object_id": "1999-025AXQ",
        "meta_epoch": "2025-12-13T22:27:47.928960",
        "meta_mean_motion": 14.11888909,
        "meta_eccentricity": 0.00400235,
        "meta_inclination": 98.7206,
        "meta_ra_of_asc_node": 349.3792,
        "meta_arg_of_pericenter": 291.0466,
        "meta_mean_anomaly": 136.2629,
        "meta_ephemeris_type": 0,
        "meta_classification_type": "U",
        "meta_norad_cat_id": 30878,
        "meta_element_set_no": 999,
        "meta_rev_at_epoch": 96384,
        "meta_bstar": 0.00077735674,
        "meta_mean_motion_dot": 1.388e-05,
        "meta_mean_motion_ddot": 0,
        "tle_line1": "1 30878U 99025AXQ 25347.93597140  .00001388  00000+0  77736-3 0  9992",
        "tle_line2": "2 30878  98.7206 349.3792 0040023 291.0466 136.2629 14.11888909963842"
      },
      "geometry": {
        "type": "Point",
        "coordinates": [
          166.78442725301386,
          -23.311373686797886
        ]
      }
    },
    {
      "type": "Feature",
      "properties": {
        "norad_id": 30879,
        "name": "FENGYUN 1C DEB",
        "group": "fengyun-1c-debris",
        "lat": -45.42663533561151,
        "lon": -144.2064344424921,
        "alt_km": 567.5651058442036,
        "timestamp": "2025-12-15T04:01:20.730904+00:00",
        "meta_object_name": "FENGYUN 1C DEB",
        "meta_object_id": "1999-025AXR",
        "meta_epoch": "2025-12-13T21:08:13.334496",
        "meta_mean_motion": 14.67419182,
        "meta_eccentricity": 0.02020766,
        "meta_inclination": 99.3515,
        "meta_ra_of_asc_node": 204.6966,
        "meta_arg_of_pericenter": 276.523,
        "meta_mean_anomaly": 81.3002,
        "meta_ephemeris_type": 0,
        "meta_classification_type": "U",
        "meta_norad_cat_id": 30879,
        "meta_element_set_no": 999,
        "meta_rev_at_epoch": 61956,
        "meta_bstar": 0.0042800119,
        "meta_mean_motion_dot": 0.00033027,
        "meta_mean_motion_ddot": 0,
        "tle_line1": "1 30879U 99025AXR 25347.88070989  .00033027  00000+0  42800-2 0  9992",
        "tle_line2": "2 30879  99.3515 204.6966 0202076 276.5230  81.3002 14.67419182619560"
      },
      "geometry": {
        "type": "Point",
        "coordinates": [
          -144.2064344424921,
          -45.42663533561151
        ]
      }
    },
    {
      "type": "Feature",
      "properties": {
        "norad_id": 30880,
        "name": "FENGYUN 1C DEB",
        "group": "fengyun-1c-debris",
        "lat": 62.41006167304954,
        "lon": -101.75048312243327,
        "alt_km": 784.9232439564994,
        "timestamp": "2025-12-15T04:01:20.730915+00:00",
        "meta_object_name": "FENGYUN 1C DEB",
        "meta_object_id": "1999-025AXS",
        "meta_epoch": "2025-12-14T03:53:55.070880",
        "meta_mean_motion": 14.25611569,
        "meta_eccentricity": 0.00222145,
        "meta_inclination": 98.7949,
        "meta_ra_of_asc_node": 60.0083,
        "meta_arg_of_pericenter": 103.4966,
        "meta_mean_anomaly": 256.869,
        "meta_ephemeris_type": 0,
        "meta_classification_type": "U",
        "meta_norad_cat_id": 30880,
        "meta_element_set_no": 999,
        "meta_rev_at_epoch": 96734,
        "meta_bstar": 0.0015053018,
        "meta_mean_motion_dot": 3.531e-05,
        "meta_mean_motion_ddot": 0,
        "tle_line1": "1 30880U 99025AXS 25348.16244295  .00003531  00000+0  15053-2 0  9996",
        "tle_line2": "2 30880  98.7949  60.0083 0022214 103.4966 256.8690 14.25611569967349"
      },
      "geometry": {
        "type": "Point",
        "coordinates": [
          -101.75048312243327,
          62.41006167304954
        ]
      }
    },
    {
      "type": "Feature",
      "properties": {
        "norad_id": 30882,
        "name": "FENGYUN 1C DEB",
        "group": "fengyun-1c-debris",
        "lat": 37.74438613340093,
        "lon": -129.2919820489038,
        "alt_km": 638.4909201963601,
        "timestamp": "2025-12-15T04:01:20.730925+00:00",
        "meta_object_name": "FENGYUN 1C DEB",
        "meta_object_id": "1999-025AXU",
        "meta_epoch": "2025-12-10T21:38:12.350976",
        "meta_mean_motion": 14.86642333,
        "meta_eccentricity": 0.0153584,
        "meta_inclination": 97.9438,
        "meta_ra_of_asc_node": 40.2365,
        "meta_arg_of_pericenter": 46.8265,
        "meta_mean_anomaly": 314.5667,
        "meta_ephemeris_type": 0,
        "meta_classification_type": "U",
        "meta_norad_cat_id": 30882,
        "meta_element_set_no": 999,
        "meta_rev_at_epoch": 99627,
        "meta_bstar": 0.0014141,
        "meta_mean_motion_dot": 0.00015542,
        "meta_mean_motion_ddot": 0,
        "tle_line1": "1 30882U 99025AXU 25344.90153184  .00015542  00000+0  14141-2 0  9994",
        "tle_line2": "2 30882  97.9438  40.2365 0153584  46.8265 314.5667 14.86642333996275"
      },
      "geometry": {
        "type": "Point",
        "coordinates": [
          -129.2919820489038,
          37.74438613340093
        ]
      }
    },
    {
      "type": "Feature",
      "properties": {
        "norad_id": 30883,
        "name": "FENGYUN 1C DEB",
        "group": "fengyun-1c-debris",
        "lat": -68.56440756489718,
        "lon": -175.89901649954928,
        "alt_km": 791.7949036877235,
        "timestamp": "2025-12-15T04:01:20.730935+00:00",
        "meta_object_name": "FENGYUN 1C DEB",
        "meta_object_id": "1999-025AXV",
        "meta_epoch": "2025-12-14T08:28:33.256416",
        "meta_mean_motion": 14.14551074,
        "meta_eccentricity": 0.01119408,
        "meta_inclination": 98.3619,
        "meta_ra_of_asc_node": 25.3389,
        "meta_arg_of_pericenter": 209.2192,
        "meta_mean_anomaly": 214.9715,
        "meta_ephemeris_type": 0,
        "meta_classification_type": "U",
        "meta_norad_cat_id": 30883,
        "meta_element_set_no": 999,
        "meta_rev_at_epoch": 96940,
        "meta_bstar": 0.00025007101,
        "meta_mean_motion_dot": 4.69e-06,
        "meta_mean_motion_ddot": 0,
        "tle_line1": "1 30883U 99025AXV 25348.35316269  .00000469  00000+0  25007-3 0  9999",
        "tle_line2": "2 30883  98.3619  25.3389 0111940 209.2192 214.9715 14.14551074969400"
      },
      "geometry": {
        "type": "Point",
        "coordinates": [
          -175.89901649954928,
          -68.56440756489718
        ]
      }
    }
  ]
}